#dP2024  5 15  6  0  0.00000000      96 __u+U IGS20 EXT  IAC
## 2314 280800.00000000   900.00000000 60445 0.2500000000000
+   54   G02G03G04G05G06G07G08G09G10G11G12G13G14G15G16G17G18
+        G19G20G21G22G23G24G25G26G27G28G29G30G31G32R01R02R03
+        R04R05R07R08R09R11R12R13R14R15R16R17R18R19R20R21R22
+        R24R25R26  0  0  0  0  0  0  0  0  0  0  0  0  0  0
+          0  0  0  0  0  0  0  0  0  0  0  0  0  0  0  0  0
++         8  8  8  7  8  8  8  8  8  8  7  6  9  7  8  8  8
++         9  9  7  8  8  7  9  8  9  7  8  7  8  9  7  7  9
++         7  8  8  7  9  9  8  8  8  7  7  6  7  7  8  7  8
++         7  7  9  0  0  0  0  0  0  0  0  0  0  0  0  0  0
++         0  0  0  0  0  0  0  0  0  0  0  0  0  0  0  0  0
%c M  cc GPS ccc cccc cccc cccc cccc ccccc ccccc ccccc ccccc
%c cc cc ccc ccc cccc cccc cccc cccc ccccc ccccc ccccc ccccc
%f  0.0000000  0.000000000  0.00000000000  0.000000000000000
%f  0.0000000  0.000000000  0.00000000000  0.000000000000000
%i    0    0    0    0      0      0      0      0         0
%i    0    0    0    0      0      0      0      0         0
/* IAC                                ULTRA-RAPID PREDICTION
/* S/V CLOCKS ARE ALIGNED TO GNSS TIME                      
/* G:C1WC2W R:C1PC2P E:C1XC5X C:C2IC6I J:C1CC2S             
/* PCV:IGS20_2290 OL/AL:FES2004  NONE     YN ORB:CoN CLK:CoN
*  2024 05 16  2  0  0.00000000
PG02 -13969.344703  11395.235278  19887.648610   -435.468575
PG03 -22883.016418  12834.758158  -3833.392504    365.435177
PG04 -15899.566303   5628.720561 -20532.523642    361.983764
PG05  23997.340579  -3565.643083 -11092.107364   -172.857168
PG06   5920.456327  22276.610546 -13034.443934    270.977057
PG07  -5505.797211  25346.774108  -3872.570746   -129.752933
PG08 -22284.760200  -2755.113267  14399.833966    180.391563
PG09  -3734.481717  15581.186225 -21254.895438    197.897570
PG10  -4293.599619 -14234.967833  22199.630931    -23.871286
PG11  12691.140807  10960.885219 -20587.215751   -663.136568
PG12  24242.796021 -10572.382429  -2381.555945   -505.710215
PG13  21710.073855  12334.444850   9183.792915    650.801749
PG14    -65.883083  16354.676689  20925.076232    401.750147
PG15  22447.535876    108.144767  13848.222148    159.479308
PG16 -23171.954277  -2033.032269 -13560.638953   -290.559681
PG17   8393.817787  20392.300878  15105.618616    705.924624
PG18   5683.681341 -25580.505599  -3611.934446   -611.210230
PG19  16087.867069  20384.100042   6303.928301    482.638746
PG20  18371.215079   3617.299354 -18720.500454    376.431202
PG21 -15134.315168   4826.124491  21580.234924    121.375300
PG22   7976.739876  13415.733979  21886.424500    -14.185306
PG23   8820.657487 -17501.577272  17855.653612    226.452130
PG24  14578.460817  -9429.459818  19573.873455   -469.972812
PG25  18016.844907 -16534.096883 -10370.314033    495.787504
PG26 -13832.648994  -9923.302241 -20609.216509    152.246790
PG27 -23127.484557 -12564.308952   4695.276524    -24.169091
PG28  -5679.205404 -23683.797160 -10610.167350   -245.806629
PG29   7475.419505 -13226.466263 -21830.103172   -598.280221
PG30   1904.697704  25620.048450   6303.224010   -389.755557
PG31 -11312.182517 -15288.454966 -18589.888085   -227.817699
PG32 -12144.839900 -19904.900162  13114.402201   -618.198758
PR01  12720.935685  11959.345521 -18599.214733     85.495632
PR02  23785.212455   8250.433615  -3855.124301    -22.957086
PR03  21822.089671   -762.588151  13192.152493    100.249306
PR04   8028.106480  -8686.406546  22632.174515    236.596849
PR05 -10046.501188 -12300.244857  19982.604936    131.568598
PR07 -21466.808081   1084.142860 -13726.181697     82.497750
PR08  -7766.980419   8903.847632 -22545.648547    -75.427838
PR09 -13177.287961  -1587.503257 -21746.233501    186.798929
PR11 -15506.989194  19621.683111   4979.958495     24.583941
PR12  -1251.646672  15327.509448  20380.313368     40.183455
PR13  11333.697658   3773.843533  22526.295011    -47.410007
PR14  19342.198882 -12661.861791  10819.949477     26.505722
PR15  14810.909443 -19729.110402  -6484.295928     79.774606
PR16   1524.297211 -15393.248699 -20283.244342     25.617975
PR17   9743.648448  -4529.532479 -23131.281216     87.149624
PR18   2471.012536 -19611.948518 -16145.038923    142.262250
PR19  -4446.967984 -24979.958328  -2626.530514   -276.782297
PR20 -11237.814390 -15276.873705  17083.285379   -112.849176
PR21  -9728.903854   4328.721447  23173.293872   -101.161675
PR22  -2701.722801  20309.055343  15208.784569    111.688661
PR24  12281.410668  14171.489077 -17288.977321    -55.963412
PR25 -10127.208003   4548.411516  22967.406511    -36.137069
PR26  -8930.464208   8515.586992 -22295.978466    -19.447154
*  2024 05 16  2 15  0.00000000
PG02 -14086.026932   9147.509773  20988.061711   -435.462476
PG03 -23198.425195  12769.885183   -940.608710    365.452649
PG04 -17687.633786   4205.911089 -19391.578797    361.991343
PG05  22872.980464  -2753.688393 -13472.985258   -172.858436
PG06   5647.261963  23616.520101 -10565.921479    270.959436
PG07  -5775.138918  24655.384745  -6646.965647   -129.760304
PG08 -23469.367583  -3733.113866  12178.380111    180.409933
PG09  -5810.057651  14294.014549 -21695.207183    197.910240
PG10  -2053.489741 -15274.558729  21793.893436    -23.877171
PG11  12321.609039  13225.529900 -19456.045941   -663.144924
PG12  24409.836332 -10366.651314    478.923748   -505.713242
PG13  22254.845793  13097.875496   6512.038988    650.804345
PG14  -2244.687004  17234.213772  20061.491804    401.758499
PG15  23714.055152   1002.542715  11618.119479    159.483008
PG16 -21726.160751  -2745.073834 -15674.658155   -290.550736
PG17   6892.385570  19430.439467  17074.258783    705.921662
PG18   5854.844707 -24984.009123  -6429.423029   -611.215417
PG19  15285.270574  19960.733140   8971.961924    482.643547
PG20  16638.877790   5031.192536 -19980.773520    376.429947
PG21 -15247.730315   2417.204208  21998.919191    121.373301
PG22   5715.519110  14294.242115  22065.787151    -14.190080
PG23  10603.581343 -18269.317562  16002.153595    226.460605
PG24  14758.569608  -7040.866460  20444.552347   -469.975937
PG25  19035.605223 -16746.323111  -7782.586718    495.788123
PG26 -11819.129419 -11166.355777 -21189.011173    152.241706
PG27 -23342.078652 -12970.960507   1894.063335    -24.170697
PG28  -5406.472802 -24738.503390  -8029.534212   -245.821259
PG29   9433.000274 -11685.397771 -21961.294482   -598.279003
PG30   1526.249953  26147.842185   3560.121534   -389.750280
PG31 -10948.512312 -17273.267083 -16944.498533   -227.817626
PG32 -10728.291602 -19172.950379  15278.173130   -618.198425
PR01  10378.374829  11426.005869 -20308.418289     85.496693
PR02  23162.267593   7940.061342  -6991.151165    -22.957131
PR03  23268.319733   -579.576653  10425.169134    100.250043
PR04  10698.423649  -8114.866221  21719.143050    236.598495
PR05  -7581.538743 -11634.447251  21416.634729    131.569168
PR07 -22992.594026    882.403990 -11014.036229     82.498597
PR08 -10453.517234   8345.573633 -21661.154517    -75.427838
PR09 -11379.744398  -3648.630065 -22506.178379    186.800904
PR11 -15678.145056  20028.535684   1802.020973     24.582822
PR12  -2814.746576  17156.254810  18696.187212     40.183873
PR13   9458.065248   5863.095032  22941.035549    -47.410327
PR14  18268.014219 -11611.809509  13527.248300     26.505839
PR15  15126.880462 -20265.808642  -3355.791544     79.774314
PR16   3065.095488 -17233.130595 -18559.991172     25.618285
PR17  10582.291725  -1797.372781 -23139.600437     87.152711
PR18   2936.527811 -17530.198131 -18310.663142    142.264000
PR19  -4525.477880 -24420.883423  -5818.454861   -276.783576
PR20 -11888.528025 -17136.805582  14717.620467   -112.849641
PR21 -10545.161207   1583.325162  23164.428201   -101.164401
PR22  -3116.640342  18336.436168  17471.583284    111.686463
PR24  12969.979999  16046.048372 -14998.831183    -55.964528
PR25 -10847.041274   1804.141170  23016.619736    -36.139383
PR26 -11573.665758   7991.742865 -21248.935554    -19.445269
EOF
